STARLINK-37473          
1 68804U 26089C   26117.60262038 -.00932027  29331-3 -16731-2 0  9991
2 68804  97.2858 322.7557 0001302 108.1631 251.9790 16.01702114   729
