{
  "norad_id": 68804,
  "name": "STARLINK-37473",
  "history": [
    {
      "epoch": "2026-04-27T14:27:46.400832Z",
      "apogee_km": 270.57094060295276,
      "perigee_km": 268.83864598845685,
      "latitude_deg": -2.519912230539914e-05,
      "longitude_deg": -109.77770535379518,
      "height_km": 273.1766840320048,
      "semi_major_axis_km": 6647.8417932957045,
      "eccentricity": 0.00013029,
      "inclination_deg": 97.2858,
      "raan_deg": 322.7557,
      "arg_perigee_deg": 108.1631,
      "mean_anomaly_deg": 251.979,
      "mean_motion_rev_day": 16.01702114
    }
  ]
}